{"type": "FeatureCollection", "features": [{"type": "Feature", "properties": {"id": "chamoli", "name": "Chamoli", "state": "Uttarakhand"}, "geometry": {"type": "Polygon", "coordinates": [[[79.5190537, 30.3985956], [79.71905369999999, 30.3985956], [79.71905369999999, 30.598595600000003], [79.5190537, 30.598595600000003], [79.5190537, 30.3985956]]]}}, {"type": "Feature", "properties": {"id": "rudraprayag", "name": "Rudraprayag", "state": "Uttarakhand"}, "geometry": {"type": "Polygon", "coordinates": [[[78.9366067, 30.3915835], [79.13660669999999, 30.3915835], [79.13660669999999, 30.591583500000002], [78.9366067, 30.591583500000002], [78.9366067, 30.3915835]]]}}, {"type": "Feature", "properties": {"id": "uttarkashi", "name": "Uttarkashi", "state": "Uttarakhand"}, "geometry": {"type": "Polygon", "coordinates": [[[78.5362521, 30.8635733], [78.73625209999999, 30.8635733], [78.73625209999999, 31.0635733], [78.5362521, 31.0635733], [78.5362521, 30.8635733]]]}}, {"type": "Feature", "properties": {"id": "tehri-garhwal", "name": "Tehri Garhwal", "state": "Uttarakhand"}, "geometry": {"type": "Polygon", "coordinates": [[[78.38373490000001, 30.3658181], [78.5837349, 30.3658181], [78.5837349, 30.5658181], [78.38373490000001, 30.5658181], [78.38373490000001, 30.3658181]]]}}, {"type": "Feature", "properties": {"id": "bageshwar", "name": "Bageshwar", "state": "Uttarakhand"}, "geometry": {"type": "Polygon", "coordinates": [[[79.82801830000001, 29.9087902], [80.0280183, 29.9087902], [80.0280183, 30.1087902], [79.82801830000001, 30.1087902], [79.82801830000001, 29.9087902]]]}}, {"type": "Feature", "properties": {"id": "pithoragarh", "name": "Pithoragarh", "state": "Uttarakhand"}, "geometry": {"type": "Polygon", "coordinates": [[[80.115167, 29.485871], [80.31516699999999, 29.485871], [80.31516699999999, 29.685871000000002], [80.115167, 29.685871000000002], [80.115167, 29.485871]]]}}, {"type": "Feature", "properties": {"id": "pauri-garhwal", "name": "Pauri Garhwal", "state": "Uttarakhand"}, "geometry": {"type": "Polygon", "coordinates": [[[78.60704790000001, 29.7473168], [78.8070479, 29.7473168], [78.8070479, 29.947316800000003], [78.60704790000001, 29.947316800000003], [78.60704790000001, 29.7473168]]]}}, {"type": "Feature", "properties": {"id": "almora", "name": "Almora", "state": "Uttarakhand"}, "geometry": {"type": "Polygon", "coordinates": [[[79.3326318, 29.602650999999998], [79.53263179999999, 29.602650999999998], [79.53263179999999, 29.802651], [79.3326318, 29.802651], [79.3326318, 29.602650999999998]]]}}, {"type": "Feature", "properties": {"id": "nainital", "name": "Nainital", "state": "Uttarakhand"}, "geometry": {"type": "Polygon", "coordinates": [[[79.3162511, 29.194995], [79.51625109999999, 29.194995], [79.51625109999999, 29.394995], [79.3162511, 29.394995], [79.3162511, 29.194995]]]}}, {"type": "Feature", "properties": {"id": "champawat", "name": "Champawat", "state": "Uttarakhand"}, "geometry": {"type": "Polygon", "coordinates": [[[80.0023068, 29.135032], [80.20230679999999, 29.135032], [80.20230679999999, 29.335032], [80.0023068, 29.335032], [80.0023068, 29.135032]]]}}, {"type": "Feature", "properties": {"id": "dehradun", "name": "Dehradun", "state": "Uttarakhand"}, "geometry": {"type": "Polygon", "coordinates": [[[77.94368130000001, 30.2255646], [78.1436813, 30.2255646], [78.1436813, 30.4255646], [77.94368130000001, 30.4255646], [77.94368130000001, 30.2255646]]]}}, {"type": "Feature", "properties": {"id": "haridwar", "name": "Haridwar", "state": "Uttarakhand"}, "geometry": {"type": "Polygon", "coordinates": [[[78.0452985, 29.8384473], [78.24529849999999, 29.8384473], [78.24529849999999, 30.0384473], [78.0452985, 30.0384473], [78.0452985, 29.8384473]]]}}, {"type": "Feature", "properties": {"id": "udham-singh-nagar", "name": "Udham Singh Nagar", "state": "Uttarakhand"}, "geometry": {"type": "Polygon", "coordinates": [[[79.3326164, 28.9478314], [79.5326164, 28.9478314], [79.5326164, 29.1478314], [79.3326164, 29.1478314], [79.3326164, 28.9478314]]]}}, {"type": "Feature", "properties": {"id": "kullu", "name": "Kullu", "state": "Himachal Pradesh"}, "geometry": {"type": "Polygon", "coordinates": [[[77.00892320000001, 31.8578974], [77.2089232, 31.8578974], [77.2089232, 32.0578974], [77.00892320000001, 32.0578974], [77.00892320000001, 31.8578974]]]}}, {"type": "Feature", "properties": {"id": "mandi", "name": "Mandi", "state": "Himachal Pradesh"}, "geometry": {"type": "Polygon", "coordinates": [[[76.9092542, 31.551661699999997], [77.1092542, 31.551661699999997], [77.1092542, 31.7516617], [76.9092542, 31.7516617], [76.9092542, 31.551661699999997]]]}}, {"type": "Feature", "properties": {"id": "chamba", "name": "Chamba", "state": "Himachal Pradesh"}, "geometry": {"type": "Polygon", "coordinates": [[[76.06315520000001, 32.5923316], [76.2631552, 32.5923316], [76.2631552, 32.792331600000004], [76.06315520000001, 32.792331600000004], [76.06315520000001, 32.5923316]]]}}, {"type": "Feature", "properties": {"id": "shimla", "name": "Shimla", "state": "Himachal Pradesh"}, "geometry": {"type": "Polygon", "coordinates": [[[77.07079230000001, 31.0040393], [77.2707923, 31.0040393], [77.2707923, 31.2040393], [77.07079230000001, 31.2040393], [77.07079230000001, 31.0040393]]]}}, {"type": "Feature", "properties": {"id": "kangra", "name": "Kangra", "state": "Himachal Pradesh"}, "geometry": {"type": "Polygon", "coordinates": [[[76.1985872, 31.9768665], [76.3985872, 31.9768665], [76.3985872, 32.1768665], [76.1985872, 32.1768665], [76.1985872, 31.9768665]]]}}, {"type": "Feature", "properties": {"id": "sirmaur", "name": "Sirmaur", "state": "Himachal Pradesh"}, "geometry": {"type": "Polygon", "coordinates": [[[77.3465304, 30.5991321], [77.5465304, 30.5991321], [77.5465304, 30.7991321], [77.3465304, 30.7991321], [77.3465304, 30.5991321]]]}}, {"type": "Feature", "properties": {"id": "kinnaur", "name": "Kinnaur", "state": "Himachal Pradesh"}, "geometry": {"type": "Polygon", "coordinates": [[[78.22814170000001, 31.493012999999998], [78.4281417, 31.493012999999998], [78.4281417, 31.693013], [78.22814170000001, 31.693013], [78.22814170000001, 31.493012999999998]]]}}, {"type": "Feature", "properties": {"id": "lahaul-spiti", "name": "Lahaul & Spiti", "state": "Himachal Pradesh"}, "geometry": {"type": "Polygon", "coordinates": [[[77.0983343, 32.4391825], [77.2983343, 32.4391825], [77.2983343, 32.639182500000004], [77.0983343, 32.639182500000004], [77.0983343, 32.4391825]]]}}, {"type": "Feature", "properties": {"id": "solan", "name": "Solan", "state": "Himachal Pradesh"}, "geometry": {"type": "Polygon", "coordinates": [[[77.0023645, 30.807756899999998], [77.20236449999999, 30.807756899999998], [77.20236449999999, 31.0077569], [77.0023645, 31.0077569], [77.0023645, 30.807756899999998]]]}}, {"type": "Feature", "properties": {"id": "bilaspur", "name": "Bilaspur", "state": "Himachal Pradesh"}, "geometry": {"type": "Polygon", "coordinates": [[[76.66116310000001, 31.238095899999998], [76.8611631, 31.238095899999998], [76.8611631, 31.4380959], [76.66116310000001, 31.4380959], [76.66116310000001, 31.238095899999998]]]}}, {"type": "Feature", "properties": {"id": "hamirpur", "name": "Hamirpur", "state": "Himachal Pradesh"}, "geometry": {"type": "Polygon", "coordinates": [[[76.4403633, 31.553986599999998], [76.64036329999999, 31.553986599999998], [76.64036329999999, 31.7539866], [76.4403633, 31.7539866], [76.4403633, 31.553986599999998]]]}}, {"type": "Feature", "properties": {"id": "una", "name": "Una", "state": "Himachal Pradesh"}, "geometry": {"type": "Polygon", "coordinates": [[[76.13514520000001, 31.4834642], [76.3351452, 31.4834642], [76.3351452, 31.683464200000003], [76.13514520000001, 31.683464200000003], [76.13514520000001, 31.4834642]]]}}]}